ONEWEB-0399             
1 50479U 21132L   26085.87334385 -.00000091  00000+0 -29234-3 0  9990
2 50479  87.8896  37.4252 0001337  83.3239 276.8041 13.11415933204812
ONEWEB-0400             
1 50480U 21132M   26085.45514009  .00000033  00000+0  51237-4 0  9992
2 50480  87.9245 351.8818 0001881  74.0422 286.0918 13.18687391210706
ONEWEB-0401             
1 50481U 21132N   26085.49968287  .00000015  00000+0  51139-5 0  9990
2 50481  87.9246 351.8691 0001794  84.9298 275.2039 13.18686863210719
ONEWEB-0402             
1 50482U 21132P   26085.69101817  .00000024  00000+0  27854-4 0  9997
2 50482  87.9248 351.8225 0001818  95.3706 264.7634 13.18686151210761
ONEWEB-0403             
1 50483U 21132Q   26085.71576325 -.00000013  00000+0 -64861-4 0  9990
2 50483  87.9244 351.8408 0001680  75.7725 284.3594 13.18687324210723
ONEWEB-0404             
1 50484U 21132R   26085.93099792  .00000536  00000+0  14759-2 0  9990
2 50484  87.8890  37.4195 0001577  73.4347 286.6954 13.11415368204919
ONEWEB-0405             
1 50485U 21132S   26085.27535150  .00000085  00000+0  18353-3 0  9995
2 50485  87.9246 351.9120 0002122  66.5409 293.5946 13.18686708211064
ONEWEB-0406             
1 50486U 21132T   26085.26545163  .00000019  00000+0  15921-4 0  9996
2 50486  87.9238 351.9378 0001369  70.0164 290.1115 13.18686638210692
ONEWEB-0407             
1 50487U 21132U   26085.71411680  .00000001  00000+0 -28983-4 0  9997
2 50487  87.9249 351.8339 0001937  82.2950 277.8402 13.18687246210697
ONEWEB-0409             
1 50488U 21132V   26085.92930177  .00000558  00000+0  15398-2 0  9998
2 50488  87.8897  37.4018 0001710  72.7048 287.4267 13.11415334204800
ONEWEB-0412             
1 50489U 21132W   26085.24731233  .00000070  00000+0  14556-3 0  9991
2 50489  87.9237 351.9396 0001706  88.8998 271.2330 13.18686818210724
ONEWEB-0413             
1 50490U 21132X   26085.70751420  .00000010  00000+0 -72816-5 0  9994
2 50490  87.9237 351.8514 0001939  87.8982 272.2372 13.18687975210729
ONEWEB-0414             
1 50491U 21132Y   26085.69265760  .00000039  00000+0  67221-4 0  9993
2 50491  87.9245 351.8277 0001662  83.1684 276.9637 13.18687067210756
