[
    {
      "OBJECT_NAME": "ONEWEB-0399",
      "OBJECT_ID": "2021-132L",
      "EPOCH": "2026-03-26T20:57:36.908640",
      "MEAN_MOTION": 13.11415933,
      "ECCENTRICITY": 0.00013377,
      "INCLINATION": 87.8896,
      "RA_OF_ASC_NODE": 37.4252,
      "ARG_OF_PERICENTER": 83.3239,
      "MEAN_ANOMALY": 276.8041,
      "EPHEMERIS_TYPE": 0,
      "CLASSIFICATION_TYPE": "U",
      "NORAD_CAT_ID": 50479,
      "ELEMENT_SET_NO": 999,
      "REV_AT_EPOCH": 20481,
      "BSTAR": -0.00029234362,
      "MEAN_MOTION_DOT": -9.1e-7,
      "MEAN_MOTION_DDOT": 0
    },
    {
      "OBJECT_NAME": "ONEWEB-0400",
      "OBJECT_ID": "2021-132M",
      "EPOCH": "2026-03-26T10:55:24.103776",
      "MEAN_MOTION": 13.18687391,
      "ECCENTRICITY": 0.00018818,
      "INCLINATION": 87.9245,
      "RA_OF_ASC_NODE": 351.8818,
      "ARG_OF_PERICENTER": 74.0422,
      "MEAN_ANOMALY": 286.0918,
      "EPHEMERIS_TYPE": 0,
      "CLASSIFICATION_TYPE": "U",
      "NORAD_CAT_ID": 50480,
      "ELEMENT_SET_NO": 999,
      "REV_AT_EPOCH": 21070,
      "BSTAR": 0.000051236987,
      "MEAN_MOTION_DOT": 3.3e-7,
      "MEAN_MOTION_DDOT": 0
    },
    {
      "OBJECT_NAME": "ONEWEB-0401",
      "OBJECT_ID": "2021-132N",
      "EPOCH": "2026-03-26T11:59:32.599968",
      "MEAN_MOTION": 13.18686863,
      "ECCENTRICITY": 0.00017945,
      "INCLINATION": 87.9246,
      "RA_OF_ASC_NODE": 351.8691,
      "ARG_OF_PERICENTER": 84.9298,
      "MEAN_ANOMALY": 275.2039,
      "EPHEMERIS_TYPE": 0,
      "CLASSIFICATION_TYPE": "U",
      "NORAD_CAT_ID": 50481,
      "ELEMENT_SET_NO": 999,
      "REV_AT_EPOCH": 21071,
      "BSTAR": 0.000005113884,
      "MEAN_MOTION_DOT": 1.5e-7,
      "MEAN_MOTION_DDOT": 0
    },
    {
      "OBJECT_NAME": "ONEWEB-0402",
      "OBJECT_ID": "2021-132P",
      "EPOCH": "2026-03-26T16:35:03.969888",
      "MEAN_MOTION": 13.18686151,
      "ECCENTRICITY": 0.00018181,
      "INCLINATION": 87.9248,
      "RA_OF_ASC_NODE": 351.8225,
      "ARG_OF_PERICENTER": 95.3706,
      "MEAN_ANOMALY": 264.7634,
      "EPHEMERIS_TYPE": 0,
      "CLASSIFICATION_TYPE": "U",
      "NORAD_CAT_ID": 50482,
      "ELEMENT_SET_NO": 999,
      "REV_AT_EPOCH": 21076,
      "BSTAR": 0.000027854391,
      "MEAN_MOTION_DOT": 2.4e-7,
      "MEAN_MOTION_DDOT": 0
    },
    {
      "OBJECT_NAME": "ONEWEB-0403",
      "OBJECT_ID": "2021-132Q",
      "EPOCH": "2026-03-26T17:10:41.944800",
      "MEAN_MOTION": 13.18687324,
      "ECCENTRICITY": 0.00016808,
      "INCLINATION": 87.9244,
      "RA_OF_ASC_NODE": 351.8408,
      "ARG_OF_PERICENTER": 75.7725,
      "MEAN_ANOMALY": 284.3594,
      "EPHEMERIS_TYPE": 0,
      "CLASSIFICATION_TYPE": "U",
      "NORAD_CAT_ID": 50483,
      "ELEMENT_SET_NO": 999,
      "REV_AT_EPOCH": 21072,
      "BSTAR": -0.000064860983,
      "MEAN_MOTION_DOT": -1.3e-7,
      "MEAN_MOTION_DDOT": 0
    },
    {
      "OBJECT_NAME": "ONEWEB-0404",
      "OBJECT_ID": "2021-132R",
      "EPOCH": "2026-03-26T22:20:38.220288",
      "MEAN_MOTION": 13.11415368,
      "ECCENTRICITY": 0.0001577,
      "INCLINATION": 87.889,
      "RA_OF_ASC_NODE": 37.4195,
      "ARG_OF_PERICENTER": 73.4347,
      "MEAN_ANOMALY": 286.6954,
      "EPHEMERIS_TYPE": 0,
      "CLASSIFICATION_TYPE": "U",
      "NORAD_CAT_ID": 50484,
      "ELEMENT_SET_NO": 999,
      "REV_AT_EPOCH": 20491,
      "BSTAR": 0.0014759192,
      "MEAN_MOTION_DOT": 0.00000536,
      "MEAN_MOTION_DDOT": 0
    },
    {
      "OBJECT_NAME": "ONEWEB-0405",
      "OBJECT_ID": "2021-132S",
      "EPOCH": "2026-03-26T06:36:30.369600",
      "MEAN_MOTION": 13.18686708,
      "ECCENTRICITY": 0.0002122,
      "INCLINATION": 87.9246,
      "RA_OF_ASC_NODE": 351.912,
      "ARG_OF_PERICENTER": 66.5409,
      "MEAN_ANOMALY": 293.5946,
      "EPHEMERIS_TYPE": 0,
      "CLASSIFICATION_TYPE": "U",
      "NORAD_CAT_ID": 50485,
      "ELEMENT_SET_NO": 999,
      "REV_AT_EPOCH": 21106,
      "BSTAR": 0.00018353,
      "MEAN_MOTION_DOT": 8.5e-7,
      "MEAN_MOTION_DDOT": 0
    },
    {
      "OBJECT_NAME": "ONEWEB-0406",
      "OBJECT_ID": "2021-132T",
      "EPOCH": "2026-03-26T06:22:15.020832",
      "MEAN_MOTION": 13.18686638,
      "ECCENTRICITY": 0.0001369,
      "INCLINATION": 87.9238,
      "RA_OF_ASC_NODE": 351.9378,
      "ARG_OF_PERICENTER": 70.0164,
      "MEAN_ANOMALY": 290.1115,
      "EPHEMERIS_TYPE": 0,
      "CLASSIFICATION_TYPE": "U",
      "NORAD_CAT_ID": 50486,
      "ELEMENT_SET_NO": 999,
      "REV_AT_EPOCH": 21069,
      "BSTAR": 0.000015921,
      "MEAN_MOTION_DOT": 1.9e-7,
      "MEAN_MOTION_DDOT": 0
    },
    {
      "OBJECT_NAME": "ONEWEB-0407",
      "OBJECT_ID": "2021-132U",
      "EPOCH": "2026-03-26T17:08:19.691520",
      "MEAN_MOTION": 13.18687246,
      "ECCENTRICITY": 0.00019379,
      "INCLINATION": 87.9249,
      "RA_OF_ASC_NODE": 351.8339,
      "ARG_OF_PERICENTER": 82.295,
      "MEAN_ANOMALY": 277.8402,
      "EPHEMERIS_TYPE": 0,
      "CLASSIFICATION_TYPE": "U",
      "NORAD_CAT_ID": 50487,
      "ELEMENT_SET_NO": 999,
      "REV_AT_EPOCH": 21069,
      "BSTAR": -0.000028982659,
      "MEAN_MOTION_DOT": 1e-8,
      "MEAN_MOTION_DDOT": 0
    },
    {
      "OBJECT_NAME": "ONEWEB-0409",
      "OBJECT_ID": "2021-132V",
      "EPOCH": "2026-03-26T22:18:11.672928",
      "MEAN_MOTION": 13.11415334,
      "ECCENTRICITY": 0.00017108,
      "INCLINATION": 87.8897,
      "RA_OF_ASC_NODE": 37.4018,
      "ARG_OF_PERICENTER": 72.7048,
      "MEAN_ANOMALY": 287.4267,
      "EPHEMERIS_TYPE": 0,
      "CLASSIFICATION_TYPE": "U",
      "NORAD_CAT_ID": 50488,
      "ELEMENT_SET_NO": 999,
      "REV_AT_EPOCH": 20480,
      "BSTAR": 0.0015398362,
      "MEAN_MOTION_DOT": 0.00000558,
      "MEAN_MOTION_DDOT": 0
    },
    {
      "OBJECT_NAME": "ONEWEB-0412",
      "OBJECT_ID": "2021-132W",
      "EPOCH": "2026-03-26T05:56:07.785312",
      "MEAN_MOTION": 13.18686818,
      "ECCENTRICITY": 0.0001706,
      "INCLINATION": 87.9237,
      "RA_OF_ASC_NODE": 351.9396,
      "ARG_OF_PERICENTER": 88.8998,
      "MEAN_ANOMALY": 271.233,
      "EPHEMERIS_TYPE": 0,
      "CLASSIFICATION_TYPE": "U",
      "NORAD_CAT_ID": 50489,
      "ELEMENT_SET_NO": 999,
      "REV_AT_EPOCH": 21072,
      "BSTAR": 0.00014556,
      "MEAN_MOTION_DOT": 7e-7,
      "MEAN_MOTION_DDOT": 0
    },
    {
      "OBJECT_NAME": "ONEWEB-0413",
      "OBJECT_ID": "2021-132X",
      "EPOCH": "2026-03-26T16:58:49.226880",
      "MEAN_MOTION": 13.18687975,
      "ECCENTRICITY": 0.00019393,
      "INCLINATION": 87.9237,
      "RA_OF_ASC_NODE": 351.8514,
      "ARG_OF_PERICENTER": 87.8982,
      "MEAN_ANOMALY": 272.2372,
      "EPHEMERIS_TYPE": 0,
      "CLASSIFICATION_TYPE": "U",
      "NORAD_CAT_ID": 50490,
      "ELEMENT_SET_NO": 999,
      "REV_AT_EPOCH": 21072,
      "BSTAR": -0.000007281605,
      "MEAN_MOTION_DOT": 1e-7,
      "MEAN_MOTION_DDOT": 0
    },
    {
      "OBJECT_NAME": "ONEWEB-0414",
      "OBJECT_ID": "2021-132Y",
      "EPOCH": "2026-03-26T16:37:25.616640",
      "MEAN_MOTION": 13.18687067,
      "ECCENTRICITY": 0.00016625,
      "INCLINATION": 87.9245,
      "RA_OF_ASC_NODE": 351.8277,
      "ARG_OF_PERICENTER": 83.1684,
      "MEAN_ANOMALY": 276.9637,
      "EPHEMERIS_TYPE": 0,
      "CLASSIFICATION_TYPE": "U",
      "NORAD_CAT_ID": 50491,
      "ELEMENT_SET_NO": 999,
      "REV_AT_EPOCH": 21075,
      "BSTAR": 0.000067220827,
      "MEAN_MOTION_DOT": 3.9e-7,
      "MEAN_MOTION_DDOT": 0
    }
  ]
